NORAD_CAT_ID,OBJECT_NAME,OBJECT_TYPE,EPOCH,MEAN_MOTION,ECCENTRICITY,INCLINATION,RA_OF_ASC_NODE,ARG_OF_PERICENTER,MEAN_ANOMALY,BSTAR,MEAN_MOTION_DOT,MEAN_MOTION_DDOT,TLE_LINE0,TLE_LINE1,TLE_LINE2,SEMIMAJOR_AXIS,PERIOD,APOGEE,PERIGEE,DECAYED
53802.0,STARLINK-4726,PAYLOAD,2024-03-04 22:10:44,15.08850067,0.0001489,53.2184,322.4753,95.5274,264.5888,6.656e-05,7.72e-06,0.0,0 STARLINK-4726,1 53802U 22111AF  24064.92412669  .00000772  00000-0  66560-4 0  9993,2 53802  53.2184 322.4753 0001489  95.5274 264.5888 15.08850067 82891,6917.85,95.437,540.745,538.685,0.0
53802.0,STARLINK-4726,PAYLOAD,2024-03-05 02:56:53,15.08852211,0.0001397,53.2183,321.583,93.0844,267.0308,8.4055e-05,1.05e-05,0.0,0 STARLINK-4726,1 53802U 22111AF  24065.12284330  .00001050  00000-0  84055-4 0  9997,2 53802  53.2183 321.5830 0001397  93.0844 267.0308 15.08852211 82922,6917.843,95.437,540.674,538.742,0.0
53802.0,STARLINK-4726,PAYLOAD,2024-03-05 20:26:09,15.08822876,0.000132,53.2175,318.3137,91.381,268.7333,-0.00022627,-3.885e-05,0.0,0 STARLINK-4726,1 53802U 22111AF  24065.85150462 -.00003885  00000-0 -22627-3 0  9991,2 53802  53.2175 318.3137 0001320  91.3810 268.7333 15.08822876 82220,6917.933,95.439,540.711,538.885,0.0
53802.0,STARLINK-4726,PAYLOAD,2024-03-05 23:36:56,15.08825014,0.0001364,53.2173,317.7184,101.8377,258.2768,-0.00021573,-3.718e-05,0.0,0 STARLINK-4726,1 53802U 22111AF  24065.98398405 -.00003718  00000-0 -21573-3 0  9990,2 53802  53.2173 317.7184 0001364 101.8377 258.2768 15.08825014 83051,6917.926,95.439,540.735,538.848,0.0
53802.0,STARLINK-4726,PAYLOAD,2024-03-06 20:16:56,15.08836621,0.0001103,53.2171,313.8498,94.6135,265.4983,7.3602e-05,8.84e-06,0.0,0 STARLINK-4726,1 53802U 22111AF  24066.84510218  .00000884  00000-0  73602-4 0  9994,2 53802  53.2171 313.8498 0001103  94.6135 265.4983 15.08836621 82375,6917.891,95.438,540.519,538.993,0.0
53802.0,STARLINK-4726,PAYLOAD,2024-03-07 09:00:01,15.08857376,0.0001134,53.2175,311.4753,95.8345,264.2776,0.00032211,4.845e-05,0.0,0 STARLINK-4726,1 53802U 22111AF  24067.37501165  .00004845  00000-0  32211-3 0  9995,2 53802  53.2175 311.4753 0001134  95.8345 264.2776 15.08857376 83263,6917.827,95.436,540.477,538.908,0.0
53802.0,STARLINK-4726,PAYLOAD,2024-03-09 00:44:40,15.0884735,0.0001257,53.217,304.0402,93.2192,266.8944,0.00014376,2.001e-05,0.0,0 STARLINK-4726,1 53802U 22111AF  24069.03102135  .00002001  00000-0  14376-3 0  9998,2 53802  53.2170 304.0402 0001257  93.2192 266.8944 15.08847350 82709,6917.858,95.437,540.592,538.853,0.0
53802.0,STARLINK-4726,PAYLOAD,2024-03-09 15:03:09,15.08833096,9.43e-05,53.2158,301.3634,93.4233,266.6866,-6.8952e-05,-1.385e-05,0.0,0 STARLINK-4726,1 53802U 22111AF  24069.62718966 -.00001385  00000-0 -68952-4 0  9994,2 53802  53.2158 301.3634 0000943  93.4233 266.6866 15.08833096 83604,6917.901,95.438,540.419,539.114,0.0
53802.0,STARLINK-4726,PAYLOAD,2024-03-10 00:35:27,15.08846037,0.0001395,53.2151,299.5811,83.3456,276.7695,0.00019173,2.765e-05,0.0,0 STARLINK-4726,1 53802U 22111AF  24070.02462141  .00002765  00000-0  19173-3 0  9992,2 53802  53.2151 299.5811 0001395  83.3456 276.7695 15.08846037 82856,6917.862,95.437,540.692,538.762,0.0
53802.0,STARLINK-4726,PAYLOAD,2024-03-10 08:32:22,15.08850505,0.0001444,53.2148,298.0936,84.0706,276.0451,0.00027692,4.123e-05,0.0,0 STARLINK-4726,1 53802U 22111AF  24070.35581910  .00004123  00000-0  27692-3 0  9999,2 53802  53.2148 298.0936 0001444  84.0706 276.0451 15.08850505 83719,6917.848,95.437,540.712,538.714,0.0
53802.0,STARLINK-4726,PAYLOAD,2024-03-10 21:15:28,15.08836183,0.000129,53.2148,295.7136,87.4397,272.6743,-5.9163e-05,-1.229e-05,0.0,0 STARLINK-4726,1 53802U 22111AF  24070.88574428 -.00001229  00000-0 -59163-4 0  9998,2 53802  53.2148 295.7136 0001290  87.4397 272.6743 15.08836183 82987,6917.892,95.438,540.649,538.865,0.0
53802.0,STARLINK-4726,PAYLOAD,2024-03-11 08:23:10,15.08844897,0.0001384,53.2154,293.632,89.0758,271.0392,0.00024066,3.545e-05,0.0,0 STARLINK-4726,1 53802U 22111AF  24071.34942293  .00003545  00000-0  24066-3 0  9993,2 53802  53.2154 293.6320 0001384  89.0758 271.0392 15.08844897 83861,6917.865,95.437,540.688,538.773,0.0
53802.0,STARLINK-4726,PAYLOAD,2024-03-11 21:06:15,15.08840735,0.0001435,53.2153,291.2532,92.2174,267.8982,0.00025609,3.79e-05,0.0,0 STARLINK-4726,1 53802U 22111AF  24071.87934529  .00003790  00000-0  25609-3 0  9990,2 53802  53.2153 291.2532 0001435  92.2174 267.8982 15.08840735 83139,6917.878,95.438,540.736,538.75,0.0
53802.0,STARLINK-4726,PAYLOAD,2024-03-12 14:35:29,15.08844136,0.0001454,53.2154,287.982,91.9991,268.1168,0.00027997,4.171e-05,0.0,0 STARLINK-4726,1 53802U 22111AF  24072.60798536  .00004171  00000-0  27997-3 0  9994,2 53802  53.2154 287.9820 0001454  91.9991 268.1168 15.08844136 84057,6917.868,95.437,540.739,538.727,0.0
53802.0,STARLINK-4726,PAYLOAD,2024-03-13 00:07:48,15.08844388,0.0001464,53.2169,286.198,95.3047,264.8112,0.000204,2.961e-05,0.0,0 STARLINK-4726,1 53802U 22111AF  24073.00542469  .00002961  00000-0  20400-3 0  9998,2 53802  53.2169 286.1980 0001464  95.3047 264.8112 15.08844388 83300,6917.867,95.437,540.745,538.719,0.0
53802.0,STARLINK-4726,PAYLOAD,2024-03-13 20:47:49,15.08841156,0.0001412,53.2132,282.3324,89.4193,270.6961,0.00011163,1.489e-05,0.0,0 STARLINK-4726,1 53802U 22111AF  24073.86654628  .00001489  00000-0  11163-3 0  9993,2 53802  53.2132 282.3324 0001412  89.4193 270.6961 15.08841156 83430,6917.877,95.437,540.719,538.765,0.0
53802.0,STARLINK-4726,PAYLOAD,2024-03-14 06:20:08,15.08844912,0.0001426,53.2174,280.5482,88.8124,271.3032,0.00014703,2.053e-05,0.0,0 STARLINK-4726,1 53802U 22111AF  24074.26398459  .00002053  00000-0  14703-3 0  9996,2 53802  53.2174 280.5482 0001426  88.8124 271.3032 15.08844912 84300,6917.865,95.437,540.717,538.744,0.0
53802.0,STARLINK-4726,PAYLOAD,2024-03-14 19:03:14,15.08825992,0.0001226,53.2139,278.1677,76.449,283.6638,-6.5523e-05,-1.33e-05,0.0,0 STARLINK-4726,1 53802U 22111AF  24074.79391565 -.00001330  00000-0 -65523-4 0  9991,2 53802  53.2139 278.1677 0001226  76.4490 283.6638 15.08825992 83570,6917.923,95.438,540.636,538.94,0.0
53802.0,STARLINK-4726,PAYLOAD,2024-03-15 14:07:51,15.08845235,0.0001047,53.217,274.6014,81.1501,278.961,-7.5874e-05,-1.495e-05,0.0,0 STARLINK-4726,1 53802U 22111AF  24075.58879069 -.00001495  00000-0 -75874-4 0  9991,2 53802  53.2170 274.6014 0001047  81.1501 278.9610 15.08845235 83690,6917.864,95.437,540.454,539.005,0.0
53802.0,STARLINK-4726,PAYLOAD,2024-03-15 22:04:47,15.08844775,0.0001364,53.2179,273.115,90.4568,269.6581,0.00012632,1.723e-05,0.0,0 STARLINK-4726,1 53802U 22111AF  24075.91999096  .00001723  00000-0  12632-3 0  9995,2 53802  53.2179 273.1150 0001364  90.4568 269.6581 15.08844775 84550,6917.866,95.437,540.674,538.787,0.0
53802.0,STARLINK-4726,PAYLOAD,2024-03-16 12:23:15,15.08847242,0.0001446,53.2177,270.4391,90.9845,269.1313,0.00026633,3.954e-05,0.0,0 STARLINK-4726,1 53802U 22111AF  24076.51615065  .00003954  00000-0  26633-3 0  9997,2 53802  53.2177 270.4391 0001446  90.9845 269.1313 15.08847242 84649,6917.858,95.437,540.724,538.723,0.0
53802.0,STARLINK-4726,PAYLOAD,2024-03-16 20:20:11,15.08842593,0.00013,53.2161,268.9502,88.1932,271.9209,0.00019092,2.752e-05,0.0,0 STARLINK-4726,1 53802U 22111AF  24076.84735312  .00002752  00000-0  19092-3 0  9997,2 53802  53.2161 268.9502 0001300  88.1932 271.9209 15.08842593 83887,6917.872,95.437,540.637,538.838,0.0
53802.0,STARLINK-4726,PAYLOAD,2024-03-17 12:14:02,15.08842309,0.0001316,53.2157,265.9756,89.6335,270.4808,9.8354e-05,1.278e-05,0.0,0 STARLINK-4726,1 53802U 22111AF  24077.50975257  .00001278  00000-0  98354-4 0  9996,2 53802  53.2157 265.9756 0001316  89.6335 270.4808 15.08842309 84795,6917.873,95.437,540.649,538.828,0.0
53802.0,STARLINK-4726,PAYLOAD,2024-03-17 20:10:58,15.08847598,0.0001298,53.2159,264.4897,85.558,274.556,0.00012105,1.64e-05,0.0,0 STARLINK-4726,1 53802U 22111AF  24077.84094989  .00001640  00000-0  12105-3 0  9999,2 53802  53.2159 264.4897 0001298  85.5580 274.5560 15.08847598 84844,6917.857,95.437,540.62,538.824,0.0
53802.0,STARLINK-4726,PAYLOAD,2024-03-18 12:04:49,15.08842827,0.0001388,53.2159,261.5172,79.2984,280.8165,0.00016034,2.265e-05,0.0,0 STARLINK-4726,1 53802U 22111AF  24078.50335234  .00002265  00000-0  16034-3 0  9993,2 53802  53.2159 261.5172 0001388  79.2984 280.8165 15.08842827 84139,6917.872,95.437,540.697,538.777,0.0
53802.0,STARLINK-4726,PAYLOAD,2024-03-18 21:37:08,15.08842716,0.0001375,53.2158,259.7328,79.7545,280.3602,0.00013664,1.888e-05,0.0,0 STARLINK-4726,1 53802U 22111AF  24078.90079260  .00001888  00000-0  13664-3 0  9997,2 53802  53.2158 259.7328 0001375  79.7545 280.3602 15.08842716 85009,6917.872,95.437,540.688,538.786,0.0
53802.0,STARLINK-4726,PAYLOAD,2024-03-19 11:55:36,15.08844758,0.0001419,53.2158,257.0572,77.1354,282.9797,0.00012815,1.752e-05,0.0,0 STARLINK-4726,1 53802U 22111AF  24079.49695199  .00001752  00000-0  12815-3 0  9994,2 53802  53.2158 257.0572 0001419  77.1354 282.9797 15.08844758 85090,6917.866,95.437,540.712,538.749,0.0
53802.0,STARLINK-4726,PAYLOAD,2024-03-19 21:27:55,15.08851055,0.0001309,53.2153,255.271,91.0392,269.075,0.00020315,2.948e-05,0.0,0 STARLINK-4726,1 53802U 22111AF  24079.89438693  .00002948  00000-0  20315-3 0  9994,2 53802  53.2153 255.2710 0001309  91.0392 269.0750 15.08851055 84344,6917.847,95.437,540.617,538.806,0.0
53802.0,STARLINK-4726,PAYLOAD,2024-03-20 18:07:55,15.08830946,0.0002407,53.2144,251.4061,38.4018,321.7145,-0.00026452,-4.495e-05,0.0,0 STARLINK-4726,1 53802U 22111AF  24080.75550576 -.00004495  00000-0 -26452-3 0  9995,2 53802  53.2144 251.4061 0002407  38.4018 321.7145 15.08830946 84475,6917.908,95.438,541.438,538.108,0.0
53802.0,STARLINK-4726,PAYLOAD,2024-03-21 11:37:09,15.08829498,0.0001303,53.215,248.1334,87.5992,272.5149,-0.0004093,-6.794e-05,0.0,0 STARLINK-4726,1 53802U 22111AF  24081.48414300 -.00006794  00000-0 -40930-3 0  9991,2 53802  53.2150 248.1334 0001303  87.5992 272.5149 15.08829498 84587,6917.912,95.438,540.679,538.876,0.0
